[{"OBJECT_NAME":"STARLINK-5998","OBJECT_ID":"2023-064W","EPOCH":"2026-03-09T15:26:25.833984","MEAN_MOTION":14.98347142,"ECCENTRICITY":0.0002898,"INCLINATION":70.0004,"RA_OF_ASC_NODE":144.392,"ARG_OF_PERICENTER":270.8108,"MEAN_ANOMALY":89.2719,"EPHEMERIS_TYPE":0,"CLASSIFICATION_TYPE":"U","NORAD_CAT_ID":56468,"ELEMENT_SET_NO":999,"REV_AT_EPOCH":15524,"BSTAR":-0.00030477,"MEAN_MOTION_DOT":-3.729e-5,"MEAN_MOTION_DDOT":0},{"OBJECT_NAME":"ATLAS 28E DEB","OBJECT_ID":"1990-031F","EPOCH":"2026-03-09T23:20:22.354944","MEAN_MOTION":14.8907054,"ECCENTRICITY":0.00492653,"INCLINATION":89.9045,"RA_OF_ASC_NODE":245.9973,"ARG_OF_PERICENTER":224.0293,"MEAN_ANOMALY":135.7008,"EPHEMERIS_TYPE":0,"CLASSIFICATION_TYPE":"U","NORAD_CAT_ID":20565,"ELEMENT_SET_NO":999,"REV_AT_EPOCH":36885,"BSTAR":0.00032450895,"MEAN_MOTION_DOT":3.143e-5,"MEAN_MOTION_DDOT":0}]
